0 SL-8 R/B
1 16457U 86002J   13282.37037378  .00000008  00000-0  21435-3 0  3140
2 16457 073.9940 339.0667 0135450 285.6333 129.0757 12.20752151140438
0 SL-8 R/B
1 16457U 86002J   13287.12352230  .00000022  00000-0  34897-3 0  3169
2 16457 073.9928 333.0740 0135462 278.9155 137.7470 12.20753265141010
0 SL-8 R/B
1 16457U 86002J   13289.17920025 -.00000031  00000-0 -13992-3 0  3175
2 16457 073.9924 330.4817 0135514 276.0242 171.8293 12.20753884141262
0 SL-8 R/B
1 16457U 86002J   13291.47420698  .00000106  00000-0  11307-2 0  3181
2 16457 073.9922 327.5875 0135500 272.7814 177.7191 12.20752747141544
0 SL-8 R/B
1 16457U 86002J   13293.54108734  .00000046  00000-0  56897-3 0  3193
2 16457 073.9920 324.9809 0135474 269.8518 261.0573 12.20753097141795
0 SL-8 R/B
1 16457U 86002J   13296.13691650 -.00000037  00000-0 -20035-3 0  3204
2 16457 073.9911 321.7060 0135465 266.2108 148.9326 12.20752897142118
